[{"OBJECT_NAME":"TISAT 1","OBJECT_ID":"2010-035E","EPOCH":"2026-03-09T18:10:07.877568","MEAN_MOTION":15.27628633,"ECCENTRICITY":0.00013432,"INCLINATION":98.0645,"RA_OF_ASC_NODE":6.8512,"ARG_OF_PERICENTER":159.303,"MEAN_ANOMALY":200.8262,"EPHEMERIS_TYPE":0,"CLASSIFICATION_TYPE":"U","NORAD_CAT_ID":36799,"ELEMENT_SET_NO":999,"REV_AT_EPOCH":85250,"BSTAR":0.00091004793,"MEAN_MOTION_DOT":0.00024554,"MEAN_MOTION_DDOT":0},{"OBJECT_NAME":"STARLINK-33688","OBJECT_ID":"2025-070Z","EPOCH":"2026-03-09T22:41:03.818976","MEAN_MOTION":15.27610359,"ECCENTRICITY":0.00022869,"INCLINATION":42.9998,"RA_OF_ASC_NODE":258.4971,"ARG_OF_PERICENTER":266.6115,"MEAN_ANOMALY":93.4475,"EPHEMERIS_TYPE":0,"CLASSIFICATION_TYPE":"U","NORAD_CAT_ID":63483,"ELEMENT_SET_NO":999,"REV_AT_EPOCH":5301,"BSTAR":0.0011850844,"MEAN_MOTION_DOT":0.00032524,"MEAN_MOTION_DDOT":0}]
