TISAT 1                 
1 36799U 10035E   26068.75703562  .00024554  00000+0  91005-3 0  9997
2 36799  98.0645   6.8512 0001343 159.3030 200.8262 15.27628633852505
STARLINK-33688          
1 63483U 25070Z   26068.94518309  .00032524  00000+0  11851-2 0  9992
2 63483  42.9998 258.4971 0002287 266.6115  93.4475 15.27610359 53019
